[{"OBJECT_NAME":"SENTINEL-1C","OBJECT_ID":"2024-235A","EPOCH":"2026-03-09T23:20:28.555872","MEAN_MOTION":14.59198602,"ECCENTRICITY":0.00013367,"INCLINATION":98.1825,"RA_OF_ASC_NODE":77.6943,"ARG_OF_PERICENTER":90.3687,"MEAN_ANOMALY":269.7665,"EPHEMERIS_TYPE":0,"CLASSIFICATION_TYPE":"U","NORAD_CAT_ID":62261,"ELEMENT_SET_NO":999,"REV_AT_EPOCH":6694,"BSTAR":0.00020454831,"MEAN_MOTION_DOT":9.19e-6,"MEAN_MOTION_DDOT":0},{"OBJECT_NAME":"THORAD AGENA D DEB","OBJECT_ID":"1969-082JW","EPOCH":"2026-03-09T04:02:04.336800","MEAN_MOTION":14.62991693,"ECCENTRICITY":0.00276855,"INCLINATION":69.9971,"RA_OF_ASC_NODE":106.2935,"ARG_OF_PERICENTER":318.5231,"MEAN_ANOMALY":41.3808,"EPHEMERIS_TYPE":0,"CLASSIFICATION_TYPE":"U","NORAD_CAT_ID":5794,"ELEMENT_SET_NO":999,"REV_AT_EPOCH":37776,"BSTAR":0.00069647739,"MEAN_MOTION_DOT":3.525e-5,"MEAN_MOTION_DDOT":0}]
